[{"OBJECT_NAME":"OBJECT H","OBJECT_ID":"2025-055H","EPOCH":"2026-03-09T23:29:50.051328","MEAN_MOTION":15.30330066,"ECCENTRICITY":0.00075967,"INCLINATION":97.636,"RA_OF_ASC_NODE":211.9572,"ARG_OF_PERICENTER":140.4354,"MEAN_ANOMALY":219.7441,"EPHEMERIS_TYPE":0,"CLASSIFICATION_TYPE":"U","NORAD_CAT_ID":63298,"ELEMENT_SET_NO":999,"REV_AT_EPOCH":5423,"BSTAR":0.0015582864,"MEAN_MOTION_DOT":0.00045901,"MEAN_MOTION_DDOT":0},{"OBJECT_NAME":"STARLINK-35527","OBJECT_ID":"2025-236G","EPOCH":"2026-03-09T09:11:10.680000","MEAN_MOTION":15.30209333,"ECCENTRICITY":9.908e-5,"INCLINATION":53.1581,"RA_OF_ASC_NODE":105.5807,"ARG_OF_PERICENTER":91.5245,"MEAN_ANOMALY":268.5869,"EPHEMERIS_TYPE":0,"CLASSIFICATION_TYPE":"U","NORAD_CAT_ID":66092,"ELEMENT_SET_NO":999,"REV_AT_EPOCH":2289,"BSTAR":0.00067298973,"MEAN_MOTION_DOT":0.00019631,"MEAN_MOTION_DDOT":0}]
